FLOCK 4G-24             
1 62637U 25009AE  26068.72509072  .00010513  00000+0  38996-3 0  9991
2 62637  97.4061 151.5140 0001802 280.2808  79.8228 15.27784978 63732
STARLINK-36500          
1 67320U 26002R   26068.42424362  .00024944  00000+0  91420-3 0  9998
2 67320  42.9968 327.1737 0000643 351.1054   8.9786 15.27533622 11095
